NORAD_CAT_ID,OBJECT_NAME,OBJECT_TYPE,EPOCH,MEAN_MOTION,ECCENTRICITY,INCLINATION,RA_OF_ASC_NODE,ARG_OF_PERICENTER,MEAN_ANOMALY,BSTAR,MEAN_MOTION_DOT,MEAN_MOTION_DDOT,TLE_LINE0,TLE_LINE1,TLE_LINE2,SEMIMAJOR_AXIS,PERIOD,APOGEE,PERIGEE,DECAYED
55393.0,STARLINK-4786,PAYLOAD,2024-02-22 11:23:39,14.98330047,0.0002759,70.0013,145.7857,264.6117,95.4727,-4.4482e-05,-6.24e-06,0.0,0 STARLINK-4786,1 55393U 23014C   24053.47476384 -.00000624  00000-0 -44482-4 0  9992,2 55393  70.0013 145.7857 0002759 264.6117  95.4727 14.98330047 59349,6950.193,96.107,573.975,570.14,0.0
55393.0,STARLINK-4786,PAYLOAD,2024-02-22 14:35:55,14.98331918,0.0002761,70.0014,145.4494,265.5428,94.5415,-1.6627e-05,-2.91e-06,0.0,0 STARLINK-4786,1 55393U 23014C   24053.60828177 -.00000291  00000-0 -16627-4 0  9998,2 55393  70.0014 145.4494 0002761 265.5428  94.5415 14.98331918 60302,6950.187,96.107,573.971,570.133,0.0
55393.0,STARLINK-4786,PAYLOAD,2024-02-22 16:12:03,14.98332505,0.0002785,70.0013,145.2815,265.2617,94.8224,-2.1031e-05,-3.44e-06,0.0,0 STARLINK-4786,1 55393U 23014C   24053.67504107 -.00000344  00000-0 -21031-4 0  9993,2 55393  70.0013 145.2815 0002785 265.2617  94.8224 14.98332505 60314,6950.185,96.107,573.986,570.115,0.0
55393.0,STARLINK-4786,PAYLOAD,2024-02-23 11:25:40,14.98330824,0.0002747,70.0011,143.2607,269.1249,90.9596,5.3383e-05,5.44e-06,0.0,0 STARLINK-4786,1 55393U 23014C   24054.47615839  .00000544  00000-0  53383-4 0  9992,2 55393  70.0011 143.2607 0002747 269.1249  90.9596 14.98330824 59499,6950.19,96.107,573.965,570.146,0.0
55393.0,STARLINK-4786,PAYLOAD,2024-02-23 14:37:56,14.98331542,0.0002707,70.0013,142.9242,270.3508,89.734,7.6146e-05,8.16e-06,0.0,0 STARLINK-4786,1 55393U 23014C   24054.60967724  .00000816  00000-0  76146-4 0  9994,2 55393  70.0013 142.9242 0002707 270.3508  89.7340 14.98331542 60459,6950.188,96.107,573.935,570.172,0.0
55393.0,STARLINK-4786,PAYLOAD,2024-02-23 16:14:04,14.98331956,0.0002679,70.0013,142.7559,269.3641,90.7211,7.5005e-05,8.02e-06,0.0,0 STARLINK-4786,1 55393U 23014C   24054.67643691  .00000802  00000-0  75005-4 0  9993,2 55393  70.0013 142.7559 0002679 269.3641  90.7211 14.98331956 60461,6950.187,96.107,573.914,570.19,0.0
55393.0,STARLINK-4786,PAYLOAD,2024-02-23 22:38:35,14.98358619,0.0002863,70.0012,142.0821,271.3143,88.7688,-0.00050891,-6.164e-05,0.0,0 STARLINK-4786,1 55393U 23014C   24054.94347218 -.00006164  00000-0 -50891-3 0  9993,2 55393  70.0012 142.0821 0002863 271.3143  88.7688 14.98358619 59569,6950.104,96.105,573.959,569.98,0.0
55393.0,STARLINK-4786,PAYLOAD,2024-02-24 11:27:41,14.98324966,0.000273,70.0011,140.7357,265.4849,94.5998,1.1249e-05,4.1e-07,0.0,0 STARLINK-4786,1 55393U 23014C   24055.47756266  .00000041  00000-0  11249-4 0  9990,2 55393  70.0011 140.7357 0002730 265.4849  94.5998 14.98324966 59643,6950.208,96.107,573.971,570.176,0.0
55393.0,STARLINK-4786,PAYLOAD,2024-02-24 13:03:49,14.98334661,0.0002526,70.0006,140.5672,264.1342,95.9529,-0.00016362,-2.045e-05,0.0,0 STARLINK-4786,1 55393U 23014C   24055.54432139 -.00002045  00000-0 -16362-3 0  9996,2 55393  70.0006 140.5672 0002526 264.1342  95.9529 14.98334661 60596,6950.178,96.107,573.799,570.288,0.0
55393.0,STARLINK-4786,PAYLOAD,2024-02-25 05:05:09,14.98346268,0.0002254,70.0004,138.8838,249.4215,110.6702,-0.00023493,-2.896e-05,0.0,0 STARLINK-4786,1 55393U 23014C   24056.21191742 -.00002896  00000-0 -23493-3 0  9990,2 55393  70.0004 138.8838 0002254 249.4215 110.6702 14.98346268 59751,6950.143,96.106,573.574,570.441,0.0
55393.0,STARLINK-4786,PAYLOAD,2024-02-25 14:41:57,14.98349294,0.0002239,70.0006,137.8739,251.4989,108.5927,-0.00014965,-1.879e-05,0.0,0 STARLINK-4786,1 55393U 23014C   24056.61246951 -.00001879  00000-0 -14965-3 0  9991,2 55393  70.0006 137.8739 0002239 251.4989 108.5927 14.98349294 60755,6950.133,96.106,573.554,570.442,0.0
55393.0,STARLINK-4786,PAYLOAD,2024-02-25 22:42:38,14.98332247,0.0002812,70.0008,137.0318,278.0106,82.0734,-4.08e-05,-5.8e-06,0.0,0 STARLINK-4786,1 55393U 23014C   24056.94627816 -.00000580  00000-0 -40800-4 0  9996,2 55393  70.0008 137.0318 0002812 278.0106  82.0734 14.98332247 60803,6950.186,96.107,574.005,570.097,0.0
55393.0,STARLINK-4786,PAYLOAD,2024-02-26 14:43:58,14.98331382,0.0002741,70.0011,135.3482,262.647,97.4378,1.676e-05,1.07e-06,0.0,0 STARLINK-4786,1 55393U 23014C   24057.61387589  .00000107  00000-0  16760-4 0  9992,2 55393  70.0011 135.3482 0002741 262.6470  97.4378 14.98331382 60908,6950.189,96.107,573.959,570.149,0.0
55393.0,STARLINK-4786,PAYLOAD,2024-02-27 11:33:44,14.98328347,0.0002744,70.0007,133.1612,265.4239,94.6607,-5.9648e-05,-8.05e-06,0.0,0 STARLINK-4786,1 55393U 23014C   24058.48176087 -.00000805  00000-0 -59648-4 0  9996,2 55393  70.0007 133.1612 0002744 265.4239  94.6607 14.98328347 60092,6950.198,96.107,573.97,570.156,0.0
55393.0,STARLINK-4786,PAYLOAD,2024-02-27 14:46:00,14.98326364,0.0002804,70.0007,132.8247,265.9849,94.099,-7.6789e-05,-1.009e-05,0.0,0 STARLINK-4786,1 55393U 23014C   24058.61528281 -.00001009  00000-0 -76789-4 0  9990,2 55393  70.0007 132.8247 0002804 265.9849  94.0990 14.98326364 61054,6950.204,96.107,574.018,570.12,0.0
55393.0,STARLINK-4786,PAYLOAD,2024-02-28 11:35:44,14.98331808,0.0002996,70.0,130.6358,266.7549,93.3267,3.4386e-05,3.17e-06,0.0,0 STARLINK-4786,1 55393U 23014C   24059.48315652  .00000317  00000-0  34386-4 0  9998,2 55393  70.0000 130.6358 0002996 266.7549  93.3267 14.98331808 60242,6950.187,96.107,574.135,569.97,0.0
55393.0,STARLINK-4786,PAYLOAD,2024-02-28 14:48:00,14.9833255,0.0002989,69.9999,130.2991,267.865,92.2167,4.0775e-05,3.94e-06,0.0,0 STARLINK-4786,1 55393U 23014C   24059.61667579  .00000394  00000-0  40775-4 0  9995,2 55393  69.9999 130.2991 0002989 267.8650  92.2167 14.98332550 61201,6950.185,96.107,574.127,569.973,0.0
55393.0,STARLINK-4786,PAYLOAD,2024-02-29 11:37:45,14.98332014,0.0003022,69.9998,128.111,270.9345,89.1468,9.0736e-05,9.9e-06,0.0,0 STARLINK-4786,1 55393U 23014C   24060.48455388  .00000990  00000-0  90736-4 0  9999,2 55393  69.9998 128.1110 0003022 270.9345  89.1468 14.98332014 60397,6950.187,96.107,574.152,569.951,0.0
55393.0,STARLINK-4786,PAYLOAD,2024-02-29 14:50:01,14.98333599,0.0003015,69.9998,127.7744,270.9965,89.0849,0.00010379,1.146e-05,0.0,0 STARLINK-4786,1 55393U 23014C   24060.61807218  .00001146  00000-0  10379-3 0  9995,2 55393  69.9998 127.7744 0003015 270.9965  89.0849 14.98333599 61353,6950.182,96.107,574.142,569.951,0.0
55393.0,STARLINK-4786,PAYLOAD,2024-02-29 21:14:33,14.98343955,0.0003006,70.0001,127.1014,272.9191,87.1624,-0.00022534,-2.782e-05,0.0,0 STARLINK-4786,1 55393U 23014C   24060.88511276 -.00002782  00000-0 -22534-3 0  9995,2 55393  70.0001 127.1014 0003006 272.9191  87.1624 14.98343955 61399,6950.15,96.106,574.104,569.926,0.0
55393.0,STARLINK-4786,PAYLOAD,2024-03-01 03:39:06,14.98328994,0.0002871,70.0002,126.4281,272.5462,87.5368,-4.5459e-05,-6.35e-06,0.0,0 STARLINK-4786,1 55393U 23014C   24061.15215929 -.00000635  00000-0 -45459-4 0  9999,2 55393  70.0002 126.4281 0002871 272.5462  87.5368 14.98328994 60499,6950.196,96.107,574.056,570.066,0.0
55393.0,STARLINK-4786,PAYLOAD,2024-03-01 13:15:55,14.9832754,0.0002764,70.0004,125.4187,267.3725,92.7117,-4.6277e-05,-6.45e-06,0.0,0 STARLINK-4786,1 55393U 23014C   24061.55272003 -.00000645  00000-0 -46277-4 0  9999,2 55393  70.0004 125.4187 0002764 267.3725  92.7117 14.98327540 61497,6950.2,96.107,573.987,570.144,0.0
55393.0,STARLINK-4786,PAYLOAD,2024-03-02 11:41:47,14.9833528,0.0002929,69.9998,123.0617,266.4446,93.6378,4.6511e-06,-3.7e-07,0.0,0 STARLINK-4786,1 55393U 23014C   24062.48735173 -.00000037  00000-0  46511-5 0  9990,2 55393  69.9998 123.0617 0002929 266.4446  93.6378 14.98335280 60691,6950.177,96.107,574.077,570.006,0.0
55393.0,STARLINK-4786,PAYLOAD,2024-03-02 13:17:55,14.98335568,0.0002974,69.9999,122.8938,269.8223,90.2595,1.2749e-05,5.9e-07,0.0,0 STARLINK-4786,1 55393U 23014C   24062.55411132  .00000059  00000-0  12749-4 0  9992,2 55393  69.9999 122.8938 0002974 269.8223  90.2595 14.98335568 61644,6950.176,96.107,574.108,569.974,0.0
55393.0,STARLINK-4786,PAYLOAD,2024-03-03 11:43:48,14.98326297,0.0002938,69.9999,120.5372,268.064,92.0182,1.0995e-05,3.8e-07,0.0,0 STARLINK-4786,1 55393U 23014C   24063.48875718  .00000038  00000-0  10995-4 0  9997,2 55393  69.9999 120.5372 0002938 268.0640  92.0182 14.98326297 60847,6950.204,96.107,574.111,570.027,0.0
55393.0,STARLINK-4786,PAYLOAD,2024-03-03 13:19:56,14.98325231,0.0002876,69.9998,120.368,265.0696,95.0134,1.1103e-05,3.9e-07,0.0,0 STARLINK-4786,1 55393U 23014C   24063.55551775  .00000039  00000-0  11103-4 0  9992,2 55393  69.9998 120.3680 0002876 265.0696  95.0134 14.98325231 61797,6950.208,96.107,574.072,570.074,0.0
55393.0,STARLINK-4786,PAYLOAD,2024-03-04 11:45:48,14.98339101,0.000296,69.9995,118.0116,271.4849,88.5971,6.3062e-05,6.6e-06,0.0,0 STARLINK-4786,1 55393U 23014C   24064.49014627  .00000660  00000-0  63062-4 0  9997,2 55393  69.9995 118.0116 0002960 271.4849  88.5971 14.98339101 60995,6950.165,96.106,574.087,569.972,0.0
55393.0,STARLINK-4786,PAYLOAD,2024-03-04 13:21:56,14.98339835,0.0002947,69.9996,117.8433,271.4274,88.6547,7.1191e-05,7.57e-06,0.0,0 STARLINK-4786,1 55393U 23014C   24064.55690519  .00000757  00000-0  71191-4 0  9993,2 55393  69.9996 117.8433 0002947 271.4274  88.6547 14.98339835 61942,6950.162,96.106,574.076,569.979,0.0
55393.0,STARLINK-4786,PAYLOAD,2024-03-05 03:47:10,14.98321209,0.0002398,70.0029,116.3313,265.463,94.6255,-6.978e-05,-9.25e-06,0.0,0 STARLINK-4786,1 55393U 23014C   24065.15776266 -.00000925  00000-0 -69780-4 0  9994,2 55393  70.0029 116.3313 0002398 265.4630  94.6255 14.98321209 61097,6950.22,96.108,573.752,570.418,0.0
55393.0,STARLINK-4786,PAYLOAD,2024-03-05 13:23:59,14.983164,0.0002908,69.9994,115.3185,271.0451,89.0375,-9.3667e-05,-1.21e-05,0.0,0 STARLINK-4786,1 55393U 23014C   24065.55832890 -.00001210  00000-0 -93667-4 0  9993,2 55393  69.9994 115.3185 0002908 271.0451  89.0375 14.98316400 62091,6950.235,96.108,574.121,570.079,0.0
